STARLINK-2680           
1 48432U 21040E   26068.52068881  .00000312  00000+0  39815-4 0  9993
2 48432  53.0562 147.7747 0001551 101.3498 258.7665 15.06411722267080
UMBRA-07                
1 58297U 23174AT  26068.71829358  .00012685  00000+0  84614-3 0  9990
2 58297  97.3902 128.3323 0004131  75.5473 284.6213 15.07174057128425
