[{"OBJECT_NAME":"STARLINK-2680","OBJECT_ID":"2021-040E","EPOCH":"2026-03-09T12:29:47.513184","MEAN_MOTION":15.06411722,"ECCENTRICITY":0.00015513,"INCLINATION":53.0562,"RA_OF_ASC_NODE":147.7747,"ARG_OF_PERICENTER":101.3498,"MEAN_ANOMALY":258.7665,"EPHEMERIS_TYPE":0,"CLASSIFICATION_TYPE":"U","NORAD_CAT_ID":48432,"ELEMENT_SET_NO":999,"REV_AT_EPOCH":26708,"BSTAR":3.9815364e-5,"MEAN_MOTION_DOT":3.12e-6,"MEAN_MOTION_DDOT":0},{"OBJECT_NAME":"UMBRA-07","OBJECT_ID":"2023-174AT","EPOCH":"2026-03-09T17:14:20.565312","MEAN_MOTION":15.07174057,"ECCENTRICITY":0.00041314,"INCLINATION":97.3902,"RA_OF_ASC_NODE":128.3323,"ARG_OF_PERICENTER":75.5473,"MEAN_ANOMALY":284.6213,"EPHEMERIS_TYPE":0,"CLASSIFICATION_TYPE":"U","NORAD_CAT_ID":58297,"ELEMENT_SET_NO":999,"REV_AT_EPOCH":12842,"BSTAR":0.0008461425,"MEAN_MOTION_DOT":0.00012685,"MEAN_MOTION_DDOT":0}]
